{"type":"FeatureCollection","features":[{"type":"Feature","properties":{"name":"Gujarat","name_gujarati":"ગુજરાત","type":"State Boundary","country":"India","capital":"Gandhinagar","districts_count":33,"coastline_km":1600,"perimeter_km":3100,"security_grid":"NIRIKSHAN Statewide Integrated Surveillance Matrix"},"geometry":{"type":"MultiPolygon","coordinates":[[[[73.40704,20.62445],[73.41866,20.62809],[73.43104,20.59427],[73.47416,20.583],[73.47529,20.54354],[73.49291,20.53558],[73.46966,20.51967],[73.46779,20.49646],[73.43104,20.45435],[73.41979,20.4129],[73.37929,20.39002],[73.38491,20.37112],[73.40554,20.38538],[73.41266,20.36084],[73.42766,20.27994],[73.41304,20.27099],[73.41679,20.19837],[73.38866,20.19274],[73.38304,20.21164],[73.36541,20.19539],[73.35304,20.20136],[73.35679,20.21296],[73.34329,20.19937],[73.29942,20.20931],[73.28329,20.19804],[73.27917,20.14996],[73.25404,20.13769],[73.24917,20.12277],[73.22479,20.12344],[73.22554,20.14001],[73.21054,20.12045],[73.18804,20.12841],[73.18992,20.16422],[73.20604,20.16256],[73.21804,20.18577],[73.19179,20.19738],[73.1783,20.1924],[73.16855,20.20799],[73.1573,20.19837],[73.1333,20.20567],[73.1423,20.17715],[73.11942,20.1682],[73.11605,20.15195],[73.07967,20.17317],[73.07367,20.1556],[73.06467,20.15858],[73.0598,20.19373],[73.04892,20.20003],[73.06017,20.22324],[73.07067,20.23186],[73.09805,20.22755],[73.09805,20.23916],[73.14267,20.27397],[73.14567,20.28657],[73.15805,20.28027],[73.16705,20.28856],[73.1663,20.30945],[73.1513,20.31708],[73.10142,20.30282],[73.11192,20.33697],[73.09655,20.36051],[73.07742,20.32304],[73.04255,20.32503],[73.03467,20.29121],[73.0163,20.29353],[73.01705,20.30879],[73.00768,20.31243],[73.0103,20.29121],[72.98143,20.28989],[72.97168,20.27032],[72.93155,20.29486],[72.91205,20.2743],[72.9263,20.25109],[72.95818,20.23385],[72.96305,20.20865],[72.8993,20.22755],[72.88955,20.21992],[72.8588,20.22457],[72.86105,20.20732],[72.83893,20.20898],[72.83106,20.19638],[72.83706,20.18809],[72.81606,20.18411],[72.82431,20.14167],[72.80593,20.15427],[72.78531,20.14499],[72.79393,20.1231],[72.77481,20.13206],[72.73768,20.12775],[72.74968,20.20567],[72.73993,20.24313],[72.75268,20.26137],[72.75681,20.29519],[72.77293,20.30315],[72.77743,20.33697],[72.83593,20.37311],[72.89068,20.37245],[72.89668,20.37974],[72.8828,20.39765],[72.90305,20.4066],[72.8963,20.42119],[72.8573,20.41887],[72.87493,20.4454],[72.89555,20.44407],[72.88655,20.46231],[72.85543,20.46761],[72.8843,20.50243],[72.88318,20.53127],[72.9038,20.57604],[72.85431,20.71463],[72.85468,20.74978],[72.84943,20.73818],[72.83968,20.80383],[72.82881,20.81013],[72.78568,20.9159],[72.75718,20.93248],[72.72156,21.04853],[72.75456,21.05085],[72.74556,21.06047],[72.75043,21.06179],[72.69906,21.06146],[72.69231,21.07837],[72.70206,21.09561],[72.66494,21.09959],[72.64806,21.07506],[72.62069,21.09926],[72.63794,21.211],[72.65744,21.2246],[72.62219,21.2425],[72.59819,21.3171],[72.62144,21.3244],[72.62744,21.34131],[72.65406,21.34628],[72.65219,21.38408],[72.69344,21.46167],[72.73543,21.4746],[72.69381,21.46698],[72.68031,21.45206],[72.65106,21.45338],[72.70581,21.52699],[72.73656,21.53893],[72.69756,21.53362],[72.68444,21.54423],[72.66456,21.53959],[72.65894,21.54888],[72.63531,21.53528],[72.61769,21.55086],[72.61056,21.58137],[72.63231,21.61519],[72.70018,21.64536],[72.73093,21.63741],[72.78643,21.64271],[72.80743,21.65796],[72.72756,21.68582],[72.62369,21.68217],[72.55281,21.66161],[72.52769,21.67819],[72.54306,21.73356],[72.59706,21.74948],[72.57831,21.77435],[72.61019,21.78894],[72.59556,21.80419],[72.62219,21.80949],[72.63194,21.91626],[72.64281,21.94179],[72.66681,21.95539],[72.63794,21.96069],[72.59481,21.93151],[72.58244,21.91825],[72.58281,21.8904],[72.56969,21.88343],[72.51494,21.88542],[72.50894,21.94411],[72.54381,22.12913],[72.56669,22.18218],[72.60531,22.21302],[72.64806,22.21567],[72.70243,22.18384],[72.75231,22.17323],[72.80893,22.22363],[72.85056,22.23026],[72.8678,22.21435],[72.86518,22.22131],[72.91318,22.24054],[72.93305,22.29028],[72.9473,22.2926],[72.94543,22.3042],[72.92818,22.31183],[72.90943,22.2979],[72.91055,22.26707],[72.89255,22.26707],[72.87193,22.28497],[72.84231,22.28199],[72.75568,22.23159],[72.73731,22.27536],[72.70168,22.28066],[72.68706,22.27171],[72.68219,22.28132],[72.65894,22.279],[72.58019,22.30122],[72.55656,22.29525],[72.51569,22.32111],[72.50032,22.27768],[72.46094,22.25646],[72.42719,22.20937],[72.40807,22.2296],[72.40319,22.25712],[72.42119,22.28033],[72.41932,22.29989],[72.37582,22.31481],[72.36232,22.29525],[72.3582,22.2475],[72.33907,22.21368],[72.3387,22.17688],[72.32332,22.14372],[72.30757,22.14571],[72.26932,22.0595],[72.2502,22.06779],[72.2247,22.05751],[72.24795,22.00777],[72.2442,21.99451],[72.24195,21.97561],[72.21157,21.96202],[72.20295,21.91261],[72.20408,21.89106],[72.24157,21.82375],[72.23557,21.81181],[72.1917,21.82673],[72.16245,21.8075],[72.17708,21.80352],[72.19433,21.75014],[72.2232,21.73787],[72.23145,21.70704],[72.22582,21.69444],[72.25357,21.68648],[72.2802,21.69477],[72.29632,21.66261],[72.30495,21.66692],[72.2982,21.65929],[72.3087,21.62514],[72.23557,21.45603],[72.10808,21.30252],[72.11145,21.2929],[72.08258,21.24515],[72.1122,21.19873],[72.01733,21.15364],[72.00983,21.13474],[71.98883,21.13971],[72.02633,21.17884],[72.00946,21.18613],[71.99333,21.15894],[71.97871,21.15695],[71.99071,21.14236],[71.97458,21.1228],[71.89171,21.11153],[71.87896,21.08998],[71.84896,21.07738],[71.83921,21.0797],[71.85646,21.09694],[71.84221,21.08898],[71.82346,21.09661],[71.82196,21.08036],[71.83734,21.07472],[71.81184,21.06776],[71.79609,21.0482],[71.78596,21.05516],[71.80471,21.03958],[71.77584,21.03825],[71.77209,21.05549],[71.75221,21.05947],[71.75784,21.04488],[71.74659,21.04588],[71.75334,21.04223],[71.74434,21.03195],[71.78221,21.03162],[71.71209,21.01935],[71.67722,20.99614],[71.64947,20.99647],[71.62922,20.98387],[71.62959,20.96928],[71.61084,20.97558],[71.61159,20.96729],[71.57972,20.95403],[71.52947,20.94276],[71.55685,20.96995],[71.51147,20.94441],[71.47997,20.90695],[71.47697,20.8897],[71.43722,20.86915],[71.39785,20.86583],[71.38135,20.87512],[71.37385,20.86848],[71.38435,20.85721],[71.3206,20.84693],[71.20548,20.79554],[71.20773,20.79222],[71.15748,20.77929],[71.14886,20.75807],[71.09186,20.75708],[71.07836,20.75011],[71.07986,20.73784],[71.04986,20.73088],[70.99961,20.74215],[70.98049,20.72259],[70.96061,20.73652],[70.93849,20.73221],[70.91974,20.74282],[70.87812,20.72823],[70.87362,20.70435],[70.84549,20.70701],[70.83349,20.69772],[70.81324,20.71861],[70.80499,20.70634],[70.83949,20.69076],[70.82712,20.69043],[70.64825,20.76271],[70.658,20.7846],[70.63437,20.76835],[70.61375,20.77133],[70.54738,20.80515],[70.586,20.7962],[70.586,20.81344],[70.55225,20.80781],[70.54588,20.81643],[70.54213,20.80184],[70.4735,20.84362],[70.44763,20.84826],[70.39288,20.89435],[70.36438,20.90131],[70.25189,20.97857],[70.23914,20.99249],[70.23951,20.99282],[70.22151,21.00277],[70.09102,21.11451],[69.98189,21.22791],[69.70778,21.53495],[69.72203,21.53926],[69.7059,21.53694],[69.60278,21.63707],[69.56641,21.65133],[69.37179,21.82939],[69.39616,21.88808],[69.38491,21.87747],[69.37179,21.82972],[69.35191,21.839],[69.21729,21.95771],[68.96605,22.23424],[68.99867,22.20937],[69.0028,22.22529],[68.99155,22.217],[68.99155,22.2349],[68.9818,22.22761],[68.95368,22.24485],[68.9593,22.25712],[68.93643,22.3115],[68.9593,22.35361],[68.97167,22.34565],[68.95855,22.36786],[69.00655,22.43948],[69.06917,22.47828],[69.0838,22.47463],[69.07442,22.45407],[69.04967,22.43749],[69.04705,22.44777],[69.03805,22.4428],[69.04705,22.42291],[69.03542,22.39008],[69.04892,22.39771],[69.06092,22.38312],[69.08192,22.38809],[69.11042,22.40964],[69.12805,22.39505],[69.1213,22.37549],[69.1303,22.39505],[69.16029,22.41196],[69.15692,22.40533],[69.16892,22.40732],[69.18242,22.41959],[69.17604,22.42291],[69.19479,22.42158],[69.18767,22.41296],[69.19142,22.40898],[69.18767,22.40235],[69.20117,22.40102],[69.19742,22.38776],[69.16779,22.37317],[69.18092,22.37052],[69.16929,22.35394],[69.17754,22.35593],[69.17529,22.34764],[69.16329,22.3483],[69.16929,22.33338],[69.15692,22.31581],[69.15392,22.2485],[69.13367,22.2223],[69.13629,22.19545],[69.14829,22.19478],[69.16704,22.20373],[69.16929,22.21501],[69.17867,22.21269],[69.19029,22.24352],[69.21279,22.21003],[69.23754,22.22263],[69.24054,22.25811],[69.32191,22.29193],[69.33991,22.31249],[69.33279,22.32774],[69.36391,22.31713],[69.42316,22.31614],[69.44341,22.3304],[69.49066,22.3367],[69.49966,22.36621],[69.54053,22.37715],[69.56041,22.36687],[69.56153,22.3556],[69.57953,22.3672],[69.59753,22.34598],[69.60953,22.35228],[69.6174,22.34532],[69.62115,22.37151],[69.6354,22.35792],[69.65528,22.35924],[69.6609,22.39605],[69.70215,22.39837],[69.69578,22.41263],[69.70553,22.43352],[69.69653,22.45341],[69.7134,22.47496],[69.73665,22.48458],[69.74378,22.45109],[69.7329,22.4428],[69.74303,22.44181],[69.74753,22.43285],[69.73965,22.43186],[69.75465,22.41826],[69.75128,22.46071],[69.7644,22.47529],[69.78127,22.46734],[69.7839,22.44711],[69.76553,22.44645],[69.7794,22.44114],[69.77415,22.43352],[69.7884,22.43484],[69.78202,22.41528],[69.79215,22.43086],[69.80565,22.42357],[69.82102,22.43285],[69.80565,22.44811],[69.80452,22.46535],[69.84465,22.47198],[69.8649,22.46004],[69.86452,22.46369],[69.87127,22.47098],[69.88252,22.47629],[69.91065,22.45275],[69.88327,22.47662],[69.89715,22.47894],[69.91365,22.45142],[69.91327,22.46435],[69.9264,22.46435],[69.91252,22.46734],[69.88965,22.49519],[69.93315,22.4869],[69.9054,22.49817],[69.9324,22.51475],[69.93502,22.50083],[69.94252,22.5121],[69.94402,22.49983],[69.94889,22.50746],[69.97102,22.49983],[69.95602,22.50679],[69.97627,22.50348],[69.96014,22.50945],[69.97139,22.52105],[69.95377,22.50912],[69.94664,22.52801],[69.95939,22.52271],[69.95302,22.52569],[69.96239,22.52636],[69.96052,22.53498],[69.97514,22.53166],[69.97214,22.53995],[69.98452,22.54128],[69.97552,22.5426],[70.01902,22.54625],[70.03927,22.56648],[70.05952,22.5562],[70.12589,22.55288],[70.13414,22.5741],[70.15176,22.57046],[70.16376,22.58339],[70.15401,22.58471],[70.15739,22.59433],[70.18139,22.59433],[70.17651,22.60428],[70.20839,22.63909],[70.19376,22.64307],[70.22339,22.66098],[70.21251,22.67789],[70.22226,22.68584],[70.21889,22.71801],[70.24889,22.74685],[70.29238,22.76609],[70.30138,22.79825],[70.37488,22.907],[70.39701,22.91828],[70.39851,22.90535],[70.39851,22.90535],[70.39851,22.90468],[70.41088,22.92657],[70.41463,22.91297],[70.40001,22.8891],[70.41501,22.9133],[70.41126,22.9269],[70.41913,22.91861],[70.41613,22.907],[70.42026,22.91828],[70.42663,22.90435],[70.41613,22.87783],[70.38838,22.84964],[70.41238,22.87219],[70.40451,22.85926],[70.41576,22.85627],[70.40488,22.85196],[70.41388,22.84599],[70.39701,22.84566],[70.42701,22.84202],[70.41463,22.83439],[70.39138,22.83936],[70.41388,22.83406],[70.39663,22.8334],[70.40976,22.82975],[70.39663,22.82179],[70.40376,22.81615],[70.41463,22.82743],[70.42288,22.82875],[70.42138,22.81881],[70.4495,22.84334],[70.45625,22.83572],[70.46488,22.86058],[70.466,22.84467],[70.46863,22.86755],[70.47688,22.86324],[70.47238,22.88247],[70.48288,22.87882],[70.47275,22.88346],[70.47725,22.90601],[70.49075,22.88015],[70.47988,22.90767],[70.48475,22.91297],[70.49413,22.89639],[70.49975,22.90369],[70.48363,22.91397],[70.48325,22.9322],[70.49038,22.9269],[70.48288,22.93552],[70.4915,22.92723],[70.49825,22.91397],[70.48813,22.93419],[70.499,22.92259],[70.49675,22.93419],[70.49675,22.93419],[70.47988,22.93751],[70.43225,22.96735],[70.47875,22.97531],[70.54138,22.96006],[70.56125,23.02936],[70.57175,23.03764],[70.60175,23.03466],[70.59687,23.06119],[70.62912,23.06284],[70.63812,23.08141],[70.68875,23.11722],[70.68425,23.14043],[70.71275,23.15469],[70.70375,23.1726],[70.718,23.18917],[70.71162,23.21437],[70.697,23.21139],[70.66662,23.22896],[70.64675,23.21371],[70.63587,23.18553],[70.58263,23.17757],[70.505,23.17657],[70.47538,23.19647],[70.42401,23.20642],[70.43188,23.21504],[70.42476,23.21636],[70.31226,23.21537],[70.29426,23.20741],[70.30888,23.18122],[70.26501,23.16165],[70.24251,23.17392],[70.24251,23.16464],[70.22789,23.16],[70.24514,23.16331],[70.23764,23.13778],[70.21589,23.14176],[70.22826,23.12783],[70.21589,23.12916],[70.20914,23.10827],[70.18476,23.08605],[70.18289,23.06649],[70.17576,23.07014],[70.17239,23.05887],[70.16489,23.06716],[70.14951,23.03698],[70.15889,23.03466],[70.13901,23.02637],[70.10789,22.97763],[70.08352,22.97763],[70.09064,22.97034],[70.06852,22.95774],[70.06252,22.96636],[70.05352,22.95044],[70.03589,22.95276],[70.05914,22.94878],[70.05577,22.93784],[70.07302,22.94315],[70.06139,22.93254],[70.08502,22.93254],[70.08014,22.91994],[70.00814,22.91297],[70.00739,22.90535],[69.99314,22.91132],[69.99952,22.90667],[69.95902,22.89905],[69.96239,22.89341],[69.92715,22.89573],[69.89865,22.87119],[69.87765,22.87385],[69.80077,22.85097],[69.76853,22.8261],[69.68228,22.79991],[69.6474,22.79593],[69.6474,22.80886],[69.63428,22.81151],[69.60578,22.80289],[69.57578,22.81748],[69.57616,22.81018],[69.53453,22.80853],[69.53078,22.79957],[69.50228,22.80919],[69.50491,22.79891],[69.49441,22.79659],[69.48278,22.80554],[69.47753,22.79526],[69.45728,22.81416],[69.41679,22.81052],[69.47003,22.77636],[69.49478,22.77968],[69.47191,22.77371],[69.43441,22.78797],[69.44379,22.78001],[69.38116,22.81847],[69.30466,22.83771],[69.26792,22.82511],[69.23154,22.83472],[69.24692,22.83837],[69.22817,22.84865],[69.22217,22.83605],[69.19592,22.83771],[69.19442,22.85163],[69.16592,22.85992],[69.17492,22.8513],[69.13067,22.87418],[69.11755,22.89109],[69.12505,22.89341],[69.11155,22.89142],[69.10892,22.90004],[69.1078,22.89043],[69.07742,22.91032],[69.0793,22.92093],[69.0688,22.91828],[69.0688,22.92657],[69.06317,22.91795],[69.00467,22.95144],[69.00542,22.94746],[68.80218,23.06417],[68.75943,23.07975],[68.63231,23.17027],[68.58394,23.22366],[68.58169,23.23924],[68.60606,23.23659],[68.62856,23.25483],[68.61806,23.28467],[68.63456,23.30058],[68.61244,23.28798],[68.60119,23.25615],[68.55244,23.26312],[68.56556,23.24587],[68.54006,23.24819],[68.53219,23.28069],[68.54419,23.30092],[68.56181,23.31351],[68.57606,23.30324],[68.56969,23.3165],[68.62069,23.32844],[68.55919,23.33838],[68.56444,23.36391],[68.58094,23.37088],[68.56669,23.37353],[68.54981,23.35562],[68.50069,23.36955],[68.48719,23.34966],[68.48719,23.36226],[68.45869,23.36723],[68.45944,23.39143],[68.44257,23.40238],[68.44969,23.43686],[68.41932,23.40636],[68.39982,23.41995],[68.41332,23.46007],[68.44294,23.47267],[68.41819,23.47267],[68.48044,23.51776],[68.45644,23.51146],[68.44782,23.52208],[68.45194,23.53766],[68.43657,23.53865],[68.44144,23.50583],[68.41594,23.4866],[68.32632,23.49621],[68.3102,23.57877],[68.29932,23.59303],[68.2712,23.59469],[68.26445,23.58574],[68.14183,23.60132],[68.11933,23.61591],[68.09495,23.65305],[68.10058,23.67825],[68.1572,23.68455],[68.1722,23.69615],[68.20257,23.76611],[68.1977,23.83574],[68.20857,23.87487],[68.25207,23.89642],[68.2802,23.93058],[68.33194,23.92394],[68.33869,23.96605],[68.35819,23.97998],[68.37882,23.98429],[68.39044,23.96639],[68.75306,23.97103],[68.76468,24.29597],[68.80818,24.31354],[68.83068,24.31189],[68.84755,24.23927],[68.8648,24.21275],[68.88018,24.21639],[68.9068,24.27972],[68.94543,24.3026],[68.9848,24.22767],[69.00317,24.22302],[69.09505,24.27409],[69.19367,24.23629],[69.31291,24.28138],[69.37479,24.26911],[69.44491,24.28005],[69.49141,24.26745],[69.59416,24.29299],[69.7314,24.17097],[70.02502,24.17097],[70.06702,24.19915],[70.11014,24.29464],[70.25001,24.32415],[70.31638,24.34969],[70.36851,24.35068],[70.41163,24.37522],[70.57325,24.42197],[70.6025,24.40771],[70.58038,24.36295],[70.56163,24.35366],[70.5845,24.29],[70.571,24.25154],[70.66775,24.21938],[70.80612,24.2207],[70.90662,24.25917],[70.87512,24.28039],[70.87399,24.29464],[70.94711,24.34836],[70.98574,24.36527],[71.01986,24.3477],[71.04911,24.35632],[71.08398,24.39445],[71.12186,24.40572],[71.12561,24.42031],[71.10311,24.43589],[71.03711,24.43225],[70.99849,24.44418],[71.00449,24.5231],[70.98724,24.54332],[70.98649,24.59538],[71.00861,24.6355],[71.07424,24.66236],[71.09673,24.68955],[71.11211,24.67562],[71.26135,24.62456],[71.28798,24.61594],[71.28798,24.61594],[71.31385,24.6481],[71.34798,24.66103],[71.35848,24.63086],[71.37723,24.62589],[71.47772,24.6796],[71.5306,24.68325],[71.54185,24.67595],[71.57334,24.68391],[71.59022,24.66733],[71.60784,24.67695],[71.65547,24.63915],[71.70797,24.6617],[71.73646,24.66037],[71.79159,24.67728],[71.81034,24.65606],[71.80584,24.62655],[71.85121,24.60973],[71.85234,24.60931],[71.86546,24.63053],[71.85759,24.66634],[71.87184,24.68159],[71.91871,24.67198],[71.91533,24.64943],[71.93971,24.63384],[71.98808,24.65739],[71.98396,24.6859],[71.99371,24.69485],[72.01246,24.69054],[72.0582,24.71243],[72.08483,24.70679],[72.0897,24.65871],[72.12458,24.63849],[72.15045,24.64346],[72.1647,24.62124],[72.19658,24.61461],[72.1947,24.6229],[72.23032,24.64048],[72.2547,24.62489],[72.27082,24.63749],[72.30495,24.6176],[72.32032,24.6176],[72.33532,24.63318],[72.34732,24.62854],[72.33607,24.5987],[72.31357,24.59372],[72.29745,24.60898],[72.27607,24.60732],[72.24645,24.58543],[72.26482,24.56024],[72.28582,24.56521],[72.29482,24.54664],[72.32895,24.55228],[72.33082,24.56919],[72.3537,24.56355],[72.38857,24.50751],[72.41632,24.52111],[72.44144,24.51481],[72.43019,24.47999],[72.45719,24.41467],[72.50032,24.417],[72.49319,24.45911],[72.50444,24.45811],[72.52019,24.50022],[72.53369,24.50387],[72.53894,24.51945],[72.57606,24.47867],[72.68331,24.46375],[72.68931,24.41169],[72.72493,24.36726],[72.80593,24.36295],[72.85356,24.37124],[72.89105,24.35698],[72.91055,24.33709],[72.9593,24.36096],[72.9773,24.37754],[72.94955,24.39909],[72.98105,24.43391],[72.96793,24.45048],[72.99343,24.47966],[73.0043,24.48132],[73.00355,24.4664],[73.03467,24.46408],[73.08605,24.49856],[73.0958,24.48994],[73.0913,24.47502],[73.1018,24.47071],[73.10292,24.43291],[73.07667,24.39644],[73.15205,24.35433],[73.1708,24.35565],[73.19854,24.37687],[73.21917,24.36394],[73.19854,24.33178],[73.18167,24.34339],[73.17642,24.33775],[73.1693,24.30028],[73.13555,24.30824],[73.12542,24.27342],[73.09542,24.24922],[73.08792,24.23363],[73.0973,24.23098],[73.07855,24.21938],[73.0793,24.20512],[73.0673,24.19451],[73.12505,24.12488],[73.15355,24.11261],[73.1588,24.09835],[73.21392,24.07746],[73.19329,24.04099],[73.22929,24.02209],[73.24279,24.0022],[73.26529,24.0201],[73.28254,24.01911],[73.29679,24.04397],[73.31667,24.05359],[73.32642,24.10963],[73.33842,24.09868],[73.36166,24.10465],[73.36091,24.08111],[73.40479,24.04099],[73.40816,24.00816],[73.39879,23.98993],[73.41491,23.98562],[73.42054,23.9266],[73.39054,23.91798],[73.37854,23.90339],[73.37816,23.90339],[73.35379,23.85266],[73.36841,23.83177],[73.35191,23.79131],[73.37029,23.76545],[73.40029,23.78501],[73.41304,23.77938],[73.42429,23.76147],[73.44791,23.75285],[73.44941,23.73461],[73.47154,23.71969],[73.47341,23.7051],[73.50753,23.70312],[73.49666,23.64907],[73.50866,23.64443],[73.49366,23.63216],[73.52328,23.60696],[73.57278,23.65371],[73.61553,23.65205],[73.65566,23.62122],[73.64328,23.59436],[73.64966,23.56816],[73.63653,23.56452],[73.63316,23.52871],[73.65641,23.50749],[73.64066,23.49621],[73.62041,23.43653],[73.62116,23.43454],[73.62716,23.44847],[73.64741,23.43653],[73.6924,23.45841],[73.7044,23.45145],[73.70815,23.42227],[73.7209,23.41],[73.75578,23.4541],[73.78615,23.43023],[73.8289,23.44747],[73.8304,23.42625],[73.87315,23.3795],[73.8919,23.33407],[73.93577,23.33971],[73.93802,23.36789],[73.95902,23.38116],[73.97477,23.3722],[73.9819,23.33772],[73.99764,23.33573],[73.98452,23.30987],[73.99802,23.33573],[74.02877,23.33175],[74.03327,23.30589],[74.04489,23.30887],[74.03814,23.29329],[74.09214,23.29793],[74.13864,23.2661],[74.14089,23.223],[74.12289,23.18453],[74.14727,23.17293],[74.15514,23.15668],[74.18101,23.15171],[74.20276,23.19017],[74.24701,23.1842],[74.26914,23.16364],[74.29314,23.11722],[74.28376,23.09434],[74.31863,23.07312],[74.32201,23.04096],[74.34451,23.02869],[74.36438,22.98128],[74.33926,22.9647],[74.33963,22.95276],[74.39326,22.89673],[74.41838,22.91728],[74.43376,22.91264],[74.44688,22.92126],[74.46076,22.908],[74.47613,22.85229],[74.46488,22.81648],[74.43376,22.80786],[74.43526,22.78233],[74.40188,22.7316],[74.37901,22.63445],[74.26351,22.64407],[74.25339,22.62152],[74.23126,22.6119],[74.21026,22.56449],[74.18326,22.56681],[74.18926,22.55355],[74.17089,22.54725],[74.15064,22.52105],[74.13302,22.52006],[74.11202,22.53962],[74.10152,22.53431],[74.05952,22.55421],[74.06102,22.55056],[74.04114,22.54161],[74.03364,22.49022],[74.04077,22.48657],[74.05464,22.50912],[74.08277,22.50646],[74.08802,22.48259],[74.07677,22.48358],[74.07564,22.46402],[74.10452,22.46468],[74.09852,22.44214],[74.11952,22.41893],[74.14952,22.45573],[74.16039,22.4312],[74.18401,22.44147],[74.17989,22.46269],[74.19076,22.47596],[74.20276,22.46767],[74.20164,22.43451],[74.21326,22.43153],[74.21514,22.44147],[74.24401,22.43385],[74.23764,22.42191],[74.24776,22.41462],[74.25564,22.42887],[74.26764,22.40533],[74.29089,22.39373],[74.25676,22.39936],[74.24326,22.37582],[74.22376,22.3798],[74.22414,22.35659],[74.20389,22.36654],[74.19001,22.32012],[74.12814,22.33305],[74.12552,22.35626],[74.10527,22.37184],[74.06477,22.3546],[74.07189,22.3367],[74.05239,22.29392],[74.05877,22.27469],[74.07452,22.26541],[74.07489,22.2475],[74.08727,22.24286],[74.06927,22.23258],[74.07227,22.21899],[74.12252,22.21236],[74.12139,22.16759],[74.13414,22.16063],[74.12289,22.13576],[74.12439,22.09763],[74.15251,22.10592],[74.17876,22.08536],[74.16451,22.08304],[74.16001,22.05884],[74.13152,22.04789],[74.14014,22.0406],[74.09214,22.01507],[74.09814,21.99816],[74.15064,21.98655],[74.13977,21.96765],[74.14689,21.94842],[74.05089,21.92654],[73.94027,21.87117],[73.9294,21.86453],[73.87127,21.84099],[73.81653,21.84066],[73.79553,21.82441],[73.8079,21.80982],[73.82703,21.81016],[73.8274,21.79258],[73.8379,21.78927],[73.8289,21.78595],[73.83415,21.77501],[73.82403,21.76108],[73.8829,21.71234],[73.89452,21.67587],[73.88815,21.65299],[73.8739,21.64735],[73.85215,21.64603],[73.83865,21.6331],[73.81428,21.64404],[73.78015,21.62812],[73.79778,21.60458],[73.8139,21.6006],[73.8349,21.52036],[73.85215,21.49781],[73.8694,21.5008],[73.86452,21.51207],[73.89265,21.50909],[73.9054,21.52467],[73.9519,21.51273],[73.95715,21.54092],[73.96615,21.52169],[73.98227,21.52235],[73.97402,21.54258],[73.99802,21.5386],[74.00514,21.55352],[74.03777,21.55053],[74.04302,21.54224],[74.05464,21.55849],[74.07227,21.54788],[74.10302,21.55617],[74.11314,21.54821],[74.11914,21.55617],[74.13677,21.54622],[74.16489,21.56877],[74.17576,21.56877],[74.19526,21.53196],[74.22901,21.55418],[74.23614,21.53926],[74.26351,21.53992],[74.27626,21.56181],[74.29951,21.56844],[74.30289,21.55219],[74.33026,21.55285],[74.32051,21.49848],[74.30401,21.49947],[74.30401,21.48787],[74.25564,21.47659],[74.25339,21.46764],[74.23576,21.46764],[74.23426,21.48223],[74.21401,21.48157],[74.20914,21.462],[74.18776,21.45802],[74.18214,21.46897],[74.16114,21.46863],[74.13602,21.45603],[74.12514,21.46664],[74.10077,21.44774],[74.07227,21.45703],[74.06327,21.4746],[74.04564,21.44609],[74.04452,21.41923],[74.00252,21.42122],[73.9594,21.39536],[73.93877,21.40497],[73.9489,21.35093],[73.94215,21.2992],[73.87952,21.26571],[73.82253,21.27068],[73.82815,21.23985],[73.81165,21.2309],[73.81053,21.20735],[73.8154,21.19707],[73.8259,21.20006],[73.8259,21.1868],[73.81578,21.17386],[73.78465,21.18381],[73.77228,21.16458],[73.74003,21.17088],[73.7284,21.1616],[73.7329,21.14203],[73.71865,21.13971],[73.7014,21.15364],[73.66765,21.15463],[73.63428,21.14071],[73.62903,21.15463],[73.60766,21.15894],[73.60653,21.17884],[73.57728,21.17055],[73.57841,21.15032],[73.59866,21.15629],[73.61741,21.14236],[73.61816,21.11816],[73.64628,21.12114],[73.65153,21.10755],[73.68865,21.10059],[73.7029,21.11816],[73.70515,21.10821],[73.72953,21.09959],[73.7434,21.11484],[73.7299,21.08235],[73.73703,21.0797],[73.78015,21.06444],[73.80753,21.08467],[73.8094,21.0734],[73.81053,21.05814],[73.79553,21.04422],[73.80078,21.0293],[73.8064,21.03195],[73.80715,21.00874],[73.81015,21.02797],[73.84915,20.99946],[73.84877,20.99813],[73.86902,20.9852],[73.90127,20.98221],[73.90765,20.95967],[73.89227,20.95569],[73.88627,20.93215],[73.88852,20.93314],[73.92565,20.88838],[73.9234,20.85124],[73.9414,20.8403],[73.94402,20.82405],[73.93202,20.80847],[73.93202,20.76039],[73.9414,20.7584],[73.94215,20.74249],[73.91702,20.72491],[73.87427,20.72955],[73.85515,20.69209],[73.83565,20.70203],[73.81203,20.69209],[73.81728,20.67186],[73.83077,20.67518],[73.83902,20.65893],[73.83827,20.62047],[73.79853,20.59858],[73.7764,20.6009],[73.74453,20.56476],[73.6954,20.57836],[73.66953,20.5631],[73.65228,20.56443],[73.62753,20.58399],[73.62228,20.61417],[73.59941,20.63671],[73.56941,20.65163],[73.55103,20.64832],[73.52066,20.67882],[73.49554,20.65362],[73.47979,20.67219],[73.49029,20.68645],[73.46741,20.73619],[73.46741,20.72325],[73.44941,20.71695],[73.44079,20.69971],[73.44829,20.69209],[73.43104,20.6649],[73.39204,20.64898],[73.40704,20.62445]]],[[[69.97177,22.5867],[69.97064,22.56979],[69.97289,22.57742],[69.97927,22.57046],[69.97289,22.58173],[70.00064,22.55454],[69.99352,22.5489],[69.97552,22.54625],[69.97552,22.54824],[69.96352,22.54625],[69.96689,22.55355],[69.96089,22.54857],[69.94589,22.56615],[69.97177,22.5867]]],[[[72.35707,21.79756],[72.3267,21.81413],[72.31095,21.84099],[72.29257,21.96732],[72.32895,22.01341],[72.37507,22.02866],[72.42382,22.00645],[72.44444,21.96268],[72.43807,21.92753],[72.40019,21.8841],[72.38932,21.81911],[72.35707,21.79756]]],[[[68.53969,23.34734],[68.55244,23.34899],[68.55431,23.3291],[68.53556,23.32081],[68.52019,23.28865],[68.51494,23.29694],[68.52431,23.31086],[68.49994,23.3218],[68.49769,23.33275],[68.52056,23.35098],[68.53969,23.34734]]],[[[69.13517,22.47662],[69.15017,22.46866],[69.14492,22.45009],[69.14229,22.46303],[69.1153,22.46667],[69.10855,22.43683],[69.08455,22.42191],[69.09655,22.44114],[69.09392,22.46071],[69.13517,22.47662]]],[[[70.01602,22.60096],[70.03739,22.58836],[70.03852,22.57377],[70.00177,22.55454],[69.98527,22.58836],[69.99989,22.57178],[69.99014,22.59665],[70.01602,22.60096]]],[[[69.62903,22.45872],[69.65678,22.42688],[69.63653,22.40566],[69.59041,22.43053],[69.59566,22.44413],[69.62903,22.45872]]],[[[72.9713,20.29718],[72.98293,20.32304],[72.96155,20.33233],[72.95255,20.31442],[72.9713,20.29718]]],[[[69.8274,22.49552],[69.80977,22.47762],[69.7854,22.48856],[69.81765,22.50447],[69.8274,22.49552]]],[[[71.53022,20.90396],[71.53247,20.90297],[71.52572,20.90363],[71.53022,20.90396]]],[[[71.51785,20.91225],[71.5246,20.90463],[71.50997,20.90363],[71.51785,20.91225]]],[[[70.39851,22.90535],[70.39738,22.91861],[70.40938,22.9259],[70.39851,22.90535]]],[[[69.33954,22.38577],[69.33279,22.37251],[69.32341,22.38113],[69.33954,22.38577]]],[[[71.66522,23.97235],[71.68847,23.9707],[71.67961,23.97133],[71.66522,23.97235]]]]}}]}